"spkid","full_name","name","neo","pha","diameter","e","a","q","i","om","w","ma","ad","tp"
3065184,"       (2000 YG29)",,Y,Y,,0.6836,3.218,1.018,18.86,92.17,359.11,70.23,5.42,2460189.20
3092289,"       (2001 CA21)",,Y,Y,,0.7752,1.663,0.374,4.96,46.65,218.63,336.27,2.95,2451995.14
3070541,"       (2001 EC)",,Y,Y,,0.7656,2.598,0.609,0.61,315.79,116.01,254.81,4.59,2461047.55
3071766,"       (2001 FA58)",,Y,Y,,0.7197,2.256,0.632,8.22,155.82,114.53,322.34,3.88,2460729.92
3071767,"       (2001 FC58)",,Y,Y,,0.3434,1.021,0.670,6.77,174.60,261.24,26.81,1.37,2460572.45
3071769,"       (2001 FB90)",,Y,Y,,0.7665,2.408,0.562,1.84,264.36,16.28,104.65,4.25,2460203.74
3074752,"       (2001 GR2)",,Y,Y,,0.6215,1.863,0.705,11.83,190.21,99.36,67.27,3.02,2460426.97
3074753,"       (2001 GT2)",,Y,Y,,0.6295,2.404,0.891,3.73,145.99,359.52,126.06,3.92,2460123.79
3076784,"       (2001 HL31)",,Y,Y,,0.7785,2.434,0.539,12.86,38.36,286.86,345.73,4.33,2452086.49
3076812,"       (2001 JV1)",,Y,Y,,0.4357,1.705,0.962,6.62,92.21,201.06,165.46,2.45,2460226.73
3076814,"       (2001 KF54)",,Y,Y,,0.6503,2.338,0.818,1.63,172.48,170.88,163.87,3.86,2460006.17
3078262,"       (2001 LD)",,Y,Y,,0.3756,1.421,0.887,30.16,79.22,114.35,317.12,1.95,2460674.19
3082923,"       (2001 SQ3)",,Y,Y,,0.2546,1.11,0.827,23.90,356.15,268.28,328.50,1.39,2460637.87
3082930,"       (2001 SY269)",,Y,Y,,0.5973,1.68,0.677,1.86,232.11,223.87,186.80,2.68,2460983.16
3082929,"       (2001 SZ269)",,Y,Y,,0.6627,2.364,0.797,2.45,98.93,191.14,140.20,3.93,2460083.60
3092374,"       (2001 TA2)",,Y,Y,,0.6475,1.771,0.624,3.26,50.36,227.38,304.00,2.92,2460734.37
3092385,"       (2001 TC45)",,Y,Y,,0.6428,2.217,0.792,15.48,35.16,67.06,326.38,3.64,2460713.11
3092419,"       (2001 VB)",,Y,Y,,0.9002,2.392,0.239,9.53,306.04,224.38,349.84,4.55,2452258.63
3092474,"       (2001 VC2)",,Y,Y,,0.1321,1.041,0.904,12.51,67.04,103.87,99.95,1.18,2460492.77
3092480,"       (2001 VJ5)",,Y,Y,,0.5614,1.933,0.848,6.06,44.68,67.64,175.70,3.02,2460121.54
3092515,"       (2001 WH1)",,Y,Y,,0.8000,2.461,0.492,15.57,68.43,107.20,346.03,4.43,2452300.20
3102669,"       (2001 XQ)",,Y,Y,,0.7212,3.632,1.013,28.60,250.67,189.82,108.04,6.25,2459841.66
3102683,"       (2001 XX4)",,Y,Y,,0.5568,1.006,0.446,0.85,127.07,186.82,286.12,1.57,2460676.19
3102694,"       (2001 XP31)",,Y,Y,,0.3853,1.146,0.705,6.13,241.23,81.73,289.23,1.59,2460688.64
3102713,"       (2001 YP3)",,Y,Y,,0.6225,2.493,0.941,7.93,101.93,36.27,272.01,4.04,2460951.87
3102717,"       (2001 YV3)",,Y,Y,,0.7187,1.946,0.547,5.20,107.21,244.43,166.11,3.34,2460143.03
3102719,"       (2001 YB5)",,Y,Y,,0.8642,2.34,0.318,5.55,108.26,115.45,115.99,4.36,2460179.22
3102724,"       (2002 AV)",,Y,Y,,0.6573,2.471,0.847,2.85,123.61,286.05,326.96,4.10,2460730.71
3102728,"       (2002 AY1)",,Y,Y,,0.4372,0.7792,0.439,29.90,287.84,323.81,295.89,1.12,2460645.24
3102729,"       (2002 AZ1)",,Y,Y,,0.6668,2.118,0.706,8.14,113.59,97.16,112.48,3.53,2460248.66
3102742,"       (2002 AS4)",,Y,Y,,0.7936,1.236,0.255,26.30,285.38,42.67,242.58,2.22,2460764.15
3102743,"       (2002 AT4)",,Y,Y,,0.4467,1.867,1.033,1.50,323.38,203.15,313.29,2.70,2460721.38
3102752,"       (2002 AC9)",,Y,Y,,0.5605,1.703,0.748,2.28,2.43,28.62,114.42,2.66,2460342.53
3102786,"       (2002 BM26)",,Y,Y,0.84,0.4446,1.832,1.018,16.22,319.59,180.54,50.50,2.65,2460473.43
3114014,"       (2002 CY9)",,Y,Y,,0.5074,1.647,0.811,41.96,305.28,117.37,291.21,2.48,2460748.00
3114075,"       (2002 DO3)",,Y,Y,,0.4991,1.86,0.932,3.80,56.10,165.76,309.96,2.79,2460729.34
3117434,"       (2002 EU11)",,Y,Y,,0.6885,2.397,0.747,2.94,346.34,274.44,345.60,4.05,2452405.73
3117435,"       (2002 EV11)",,Y,Y,,0.8897,2.1,0.232,11.60,183.61,218.09,176.25,3.97,2460056.40
3117459,"       (2002 FQ5)",,Y,Y,,0.5887,1.916,0.788,7.55,196.10,80.88,155.12,3.04,2460183.15
3120885,"       (2002 GM5)",,Y,Y,,0.6954,2.123,0.647,7.30,14.01,274.02,343.47,3.60,2452430.40
3120892,"       (2002 GJ8)",,Y,Y,,0.6818,3.231,1.028,30.15,144.78,174.52,65.70,5.43,2460213.40
3120904,"       (2002 HP11)",,Y,Y,,0.7645,2.069,0.487,5.13,9.02,90.59,223.22,3.65,2461013.50
3124998,"       (2002 JZ8)",,Y,Y,,0.6300,2.775,1.027,11.36,196.36,343.78,339.48,4.52,2460696.71
3125005,"       (2002 JQ9)",,Y,Y,,0.3944,1.157,0.700,25.00,51.87,76.10,70.26,1.61,2460511.84
3127232,"       (2002 KG4)",,Y,Y,,0.6604,2.939,0.998,27.63,64.40,149.94,169.27,4.88,2459735.12
3127385,"       (2002 KK8)",,Y,Y,,0.4662,1.953,1.043,24.54,76.96,174.13,67.75,2.86,2460412.85
3127390,"       (2002 LX)",,Y,Y,,0.6689,2.517,0.833,3.24,197.44,345.45,235.68,4.20,2461104.16
3709286,"       (2002 LX64)",,Y,Y,,0.5706,1.357,0.583,4.85,285.51,230.99,90.16,2.13,2460455.87
3127412,"       (2002 MX)",,Y,Y,,0.7964,2.508,0.510,1.96,284.30,237.58,13.75,4.50,2452392.10
3130460,"       (2002 MR3)",,Y,Y,,0.6175,1.499,0.573,9.72,110.22,67.39,86.15,2.42,2460440.07
3130462,"       (2002 MT3)",,Y,Y,,0.6713,2.873,0.945,6.27,167.26,27.62,273.61,4.80,2461027.41
3131063,"       (2002 NY40)",,Y,Y,,0.7082,2.05,0.598,5.89,145.28,269.90,182.97,3.50,2461127.85
3132128,"       (2002 PR1)",,Y,Y,,0.5876,2.494,1.029,6.58,148.27,208.42,216.22,3.96,2461175.18
3133153,"       (2002 PE130)",,Y,Y,,0.6250,2.551,0.957,15.55,357.21,33.98,139.58,4.15,2460023.38
3134259,"       (2002 QQ40)",,Y,Y,,0.5640,1.215,0.530,1.72,104.06,356.52,134.02,1.90,2460418.37
3134277,"       (2002 QW47)",,Y,Y,,0.5187,1.971,0.949,4.22,116.24,140.89,22.89,2.99,2460536.22
3137721,"       (2002 SQ41)",,Y,Y,,0.7988,2.614,0.526,25.11,21.56,96.03,70.14,4.70,2460299.80
3137854,"       (2002 TP69)",,Y,Y,,0.4699,1.947,1.032,1.97,94.43,317.03,26.70,2.86,2460526.89
3137865,"       (2002 TB70)",,Y,Y,,0.1317,1.133,0.984,16.66,195.02,350.89,287.99,1.28,2460688.60
3143081,"       (2002 VR85)",,Y,Y,,0.6039,1.814,0.719,6.03,204.44,299.31,318.24,2.91,2460704.02
3144150,"       (2002 XO14)",,Y,Y,,0.6474,2.784,0.982,2.62,295.31,184.89,244.06,4.59,2461146.86
3145512,"       (2003 AY2)",,Y,Y,,0.5633,1.824,0.796,10.33,274.87,286.10,279.51,2.85,2460801.62
3145520,"       (2003 AC23)",,Y,Y,,0.5818,2.171,0.908,2.06,43.75,126.42,276.48,3.43,2460871.56
3146499,"       (2003 AF23)",,Y,Y,,0.4258,0.8745,0.502,23.23,286.75,43.95,316.06,1.25,2460636.95
3147323,"       (2003 BB21)",,Y,Y,,0.5540,2.229,0.994,4.77,344.12,212.78,169.33,3.46,2460028.81
3147555,"       (2003 BR47)",,Y,Y,,0.5003,1.628,0.814,4.42,314.41,112.71,181.94,2.44,2460975.90
3147581,"       (2003 CG11)",,Y,Y,,0.7347,2.592,0.688,21.28,130.43,107.16,57.94,4.50,2460355.17
3150771,"       (2003 EG16)",,Y,Y,,0.6897,2.391,0.742,20.40,151.22,110.67,280.48,4.04,2460898.71
3152314,"       (2003 GG21)",,Y,Y,,0.7120,2.139,0.616,10.16,11.07,97.34,328.73,3.66,2460699.77
3152317,"       (2003 GQ22)",,Y,Y,,0.1819,0.8719,0.713,17.02,199.49,168.78,341.24,1.03,2460616.00
3152318,"       (2003 GR22)",,Y,Y,,0.6084,1.545,0.605,6.17,23.42,276.83,46.73,2.49,2460509.43
3152323,"       (2003 GP51)",,Y,Y,,0.6022,2.152,0.856,2.86,141.89,357.51,17.68,3.45,2452694.88
3153509,"       (2003 HM)",,Y,Y,,0.2699,0.8135,0.594,26.27,30.45,19.33,251.87,1.03,2460681.00
3157020,"       (2003 MU)",,Y,Y,,0.4947,2.054,1.038,5.90,143.61,175.67,69.31,3.07,2460393.50
3157022,"       (2003 MS2)",,Y,Y,,0.1263,1.042,0.911,20.03,100.82,254.51,307.12,1.17,2460657.59
3157028,"       (2003 MK4)",,Y,Y,,0.1813,1.081,0.885,22.32,282.58,109.71,258.47,1.28,2460716.22
3157483,"       (2003 OC3)",,Y,Y,,0.5974,2.25,0.906,13.13,172.34,23.01,124.74,3.59,2460173.34
3159886,"       (2003 RS1)",,Y,Y,,0.6415,2.775,0.995,2.66,172.35,164.15,187.31,4.56,2461410.41
3159889,"       (2003 RB5)",,Y,Y,,0.4716,1.884,0.996,44.62,341.93,27.59,352.17,2.77,2452910.05
3160737,"       (2003 SK84)",,Y,Y,,0.7426,2.537,0.653,8.95,344.08,118.30,64.70,4.42,2460335.24
3160741,"       (2003 SS84)",,Y,Y,,0.5718,1.931,0.827,5.49,198.16,234.92,285.68,3.04,2460802.84
3160850,"       (2003 TK2)",,Y,Y,,0.6470,2.348,0.829,4.29,0.98,321.01,320.26,3.87,2460745.57
3163738,"       (2003 TO9)",,Y,Y,,0.6043,2.428,0.961,3.11,197.97,225.09,190.16,3.90,2461252.45
3163739,"       (2003 TR9)",,Y,Y,,0.7017,1.642,0.490,13.47,198.35,71.05,25.46,2.79,2460546.16
3163745,"       (2003 UB5)",,Y,Y,,0.6041,2.602,1.030,10.63,82.83,353.82,336.92,4.17,2460698.82
3163748,"       (2003 UX5)",,Y,Y,,0.3409,1.441,0.950,21.45,50.50,50.37,12.27,1.93,2460578.95
3165472,"       (2003 VE1)",,Y,Y,,0.4949,1.942,0.981,16.33,29.53,323.32,285.12,2.90,2460806.17
3167340,"       (2003 WG)",,Y,Y,,0.7840,2.437,0.526,27.14,46.63,262.00,189.78,4.35,2461257.74
3167345,"       (2003 WP21)",,Y,Y,,0.7809,2.27,0.497,4.31,37.13,124.65,32.46,4.04,2460487.83
3169265,"       (2003 WC158)",,Y,Y,,0.6279,2.639,0.982,9.02,251.04,144.53,320.38,4.30,2460772.81
3169271,"       (2003 WH166)",,Y,Y,,0.5575,1.936,0.856,0.70,185.68,329.40,242.10,3.01,2460922.64
3170212,"       (2003 YP1)",,Y,Y,,0.6424,2.654,0.949,7.49,276.66,131.48,306.59,4.36,2460834.84
3170204,"       (2003 YS17)",,Y,Y,,0.3129,0.9299,0.639,6.53,98.91,134.66,320.47,1.22,2460636.46
3170218,"       (2003 YD45)",,Y,Y,,0.6930,2.494,0.766,8.43,252.16,105.04,120.74,4.22,2460118.05
3170231,"       (2003 YL118)",,Y,Y,,0.4864,1.131,0.581,7.61,278.68,65.73,165.63,1.68,2460398.34
3170209,"       (2003 YH136)",,Y,Y,,0.8980,2.493,0.254,16.39,304.93,305.78,98.85,4.73,2460205.69
3175330,"       (2004 CO49)",,Y,Y,,0.3884,1.375,0.841,4.26,115.11,315.98,330.95,1.91,2460648.02
3176186,"       (2004 DM44)",,Y,Y,,0.7110,2.479,0.716,10.54,350.70,95.69,119.16,4.24,2460128.68
3177177,"       (2004 EH1)",,Y,Y,,0.5337,2.009,0.937,7.52,356.75,231.99,61.07,3.08,2460424.09
3177204,"       (2004 FW1)",,Y,Y,,0.7171,1.611,0.456,10.16,194.58,91.23,356.33,2.77,2460608.12
3177223,"       (2004 FJ11)",,Y,Y,,0.5621,2.248,0.984,2.39,20.89,232.48,12.54,3.51,2460557.60
3177237,"       (2004 FY31)",,Y,Y,,0.5556,2.168,0.964,11.19,28.77,197.44,148.35,3.37,2460119.86
3179352,"       (2004 GB2)",,Y,Y,,0.6493,2.118,0.743,12.42,208.94,255.43,259.89,3.49,2460913.69
3179354,"       (2004 GE2)",,Y,Y,,0.7067,2.045,0.600,2.16,45.13,259.93,341.24,3.49,2453167.18
